OPTICUBE 04             
1 41851U 16067D   24364.35223512  .00006909  00000+0  48356-3 0  9993
2 41851  98.0852 178.0517 0018392 119.1895 241.1173 15.05472980444573
AEROCUBE 8D             
1 41852U 16067E   24365.38419037  .00017624  00000+0  98653-3 0  9998
2 41852  98.1097 186.1967 0004574 154.0670 206.0790 15.13503933445018
AEROCUBE 8C             
1 41853U 16067F   24364.80396344  .00017342  00000+0  96992-3 0  9991
2 41853  98.0921 183.6974 0007718  95.4276 264.7835 15.13523086444917
PROMETHEUS 2-1          
1 41854U 16067G   24365.25274278  .00051867  00000+0  16991-2 0  9993
2 41854  98.0910 195.7810 0009637  95.8646 264.3692 15.31436584445583
PROMETHEUS 2-3          
1 41855U 16067H   24364.79990214  .00050014  00000+0  16462-2 0  9993
2 41855  98.0852 194.5875 0008117 106.7126 253.5004 15.31305807445517
CORVUS BC2              
1 42846U 17042X   24365.42188790  .00009571  00000+0  75510-3 0  9999
2 42846  97.3660 180.0377 0013306 113.4502 246.8123 15.00855036406843
CORVUS BC1              
1 42847U 17042Y   24364.76332617  .00009051  00000+0  71192-3 0  9990
2 42847  97.3672 179.8324 0012885  90.8071 269.4630 15.00991723406764
MIRATA                  
1 43015U 17073C   24365.10779088  .00074025  00000+0  22787-2 0  9996
2 43015  97.5658 249.4808 0124684 304.1525  54.7939 15.26018088386008
MAKERSAT 0              
1 43016U 17073D   24364.41028755  .00033820  00000+0  15947-2 0  9996
2 43016  97.5444 238.7483 0167227 339.6098  19.8505 15.07798759385234
SIRION PATHFINDER-2     
1 43759U 18099B   24364.87030151  .00012406  00000+0  83157-3 0  9998
2 43759  97.5045  55.7666 0009825 350.4571   9.6469 15.06968735331937
CORVUS BC4              
1 43767U 18099K   24364.09121649  .00011197  00000+0  77553-3 0  9993
2 43767  97.4862  51.5372 0010491  45.5892 314.6192 15.05770238331681
MOVE-II                 
1 43780U 18099Y   24365.08946573  .00073436  00000+0  21304-2 0  9995
2 43780  97.4937  68.3284 0004616  19.6776 340.4644 15.35236696332769
SPACEBEE-7              
1 43816U 18099BL  24365.13073666  .00041970  00000+0  17463-2 0  9994
2 43816  97.5226  67.6726 0007226 333.4720  26.6146 15.23612740332114
SPACEBEE-6              
1 43818U 18099BN  24364.97360263  .00877023  00000+0  38218-2 0  9996
2 43818  97.5008  79.7975 0007465 296.2543  63.7958 15.82541649333059
SHIELDS 1               
1 43850U 18104B   24364.83729734  .00040039  00000+0  74233-3 0  9993
2 43850  85.0194 149.3424 0009933  52.6854 307.5306 15.48748635336322
SONATE                  
1 44400U 19038Q   24365.07931524  .00068640  00000+0  11186-2 0  9996
2 44400  97.7115  10.2909 0013771 115.7720 244.4955 15.52289214304264
DUCHIFAT-3              
1 44854U 19089C   24365.18508955  .00052498  00000+0  17567-2 0  9998
2 44854  36.9508 288.3350 0012839 291.5052  68.4330 15.29899900278085
M2 PATHFINDER           
1 45727U 20037E   24364.90584944  .00009041  00000+0  72995-3 0  9997
2 45727  97.7770 180.8096 0011543 167.0878 193.0643 15.00023168245257
NETSAT-4                
1 46504U 20068U   24365.14849797  .00026229  00000+0  11078-2 0  9993
2 46504  97.8288 328.9091 0010653  53.2025 307.0186 15.23187696233918
NETSAT-3                
1 46505U 20068V   24364.68858851  .00023169  00000+0  10040-2 0  9991
2 46505  97.8276 327.6876 0010361  62.8905 297.3386 15.22345239233823
NETSAT-1                
1 46506U 20068W   24364.64269886  .00018610  00000+0  88682-3 0  9995
2 46506  97.8300 326.4530 0009482  72.5530 287.6740 15.19135017233733
NETSAT-2                
1 46507U 20068X   24364.71417097  .00025336  00000+0  10769-2 0  9996
2 46507  97.8278 328.0287 0008765  75.6696 284.5512 15.22997398233796
WILDTRACKCUBE-SIMBA     
1 47941U 21022K   24365.49606165  .00039057  00000+0  12142-2 0  9994
2 47941  97.4407 261.7057 0012144 159.9344 200.2378 15.33156314208412
GRBALPHA                
1 47959U 21022AD  24365.45664301  .00079796  00000+0  16535-2 0  9999
2 47959  97.4396 265.6904 0010494 137.7879 222.4180 15.45403425207490
BEESAT-8                
1 48085U 21022AP  24364.70356145  .00384569  00000+0  27401-2 0  9992
2 48085  97.4779 272.4985 0011140 104.0459 256.2043 15.72645623208077
LEDSAT                  
1 49069U 21073D   24365.18185422  .00052293  00000+0  13159-2 0  9993
2 49069  97.4141  76.5678 0013401 307.7193  52.2837 15.39668592186448
ROBUSTA-1F (MTCUBE 2)   
1 53109U 22080E   24364.72919536 -.00000003  00000+0  00000+0 0  9993
2 53109  70.1230 124.1293 0008379  45.5204 314.6140  6.42584032 57726
SITRO-AIS 5 (KATYS)     
1 57176U 23091L   24365.46309343  .00019434  00000+0  10440-2 0  9994
2 57176  97.5855  56.4819 0016049 163.5067 196.6691 15.14836979 83145
SITRO-AIS 6 (CHIRKIN)   
1 57192U 23091AC  24365.44348389  .00019952  00000+0  10716-2 0  9994
2 57192  97.5853  56.4927 0015793 163.6210 196.5535 15.14843510 83142
SITRO-AIS 8 (ANOKHIN)   
1 57193U 23091AD  24365.47343005  .00022125  00000+0  11599-2 0  9994
2 57193  97.5853  56.7477 0015481 163.3021 196.8724 15.15683013 83163
SITRO-AIS 7 (FARTUSHNIY)
1 57194U 23091AE  24365.45750420  .00019620  00000+0  10568-2 0  9997
2 57194  97.5852  56.4650 0015744 164.0727 196.1003 15.14745621 83140
SITRO-AIS 10 (BURDAEV)  
1 57199U 23091AK  24365.43617859  .00024465  00000+0  11951-2 0  9998
2 57199  97.5867  58.2812 0011306 148.8505 211.3401 15.18191378 83257
SITRO-AIS 9 (SHCHUKIN)  
1 57201U 23091AM  24365.43964278  .00024594  00000+0  12040-2 0  9995
2 57201  97.5862  58.2413 0011269 149.0476 211.1424 15.18114692 83258
SITRO-AIS 12 (SMIRENNIY)
1 57204U 23091AQ  24365.44286674  .00024967  00000+0  12156-2 0  9998
2 57204  97.5870  58.4572 0011309 143.5081 216.6926 15.18302657 83262
SITRO-AIS 11 (SHEFFER)  
1 57208U 23091AU  24365.47930771  .00023940  00000+0  11608-2 0  9990
2 57208  97.5869  58.5459 0011221 142.9936 217.2074 15.18455990 83275
VERONIKA                
1 58261U 23174F   24365.47590832  .00067491  00000+0  17616-2 0  9996
2 58261  97.4387  80.3182 0007999 266.7130  93.3200 15.38534960 63698
ROBUSTA-1E (ENSO)       
1 58470U 23185J   24365.43100012  .00050500  00000+0  13709-2 0  9995
2 58470  97.4004  71.5412 0008661 305.6055  54.4382 15.37395746 60131
SITRO-AIS 29            
1 59052U 24039B   24365.42352033  .00091744  00000+0  16329-2 0  9998
2 59052  97.4100 328.6565 0007935 215.3209 144.7517 15.49782098 46737
SITRO-AIS 30            
1 59053U 24039C   24365.45638210  .00088265  00000+0  16059-2 0  9990
2 59053  97.4101 328.6065 0008176 218.8308 141.2356 15.49165828 46728
SITRO-AIS 31            
1 59054U 24039D   24365.48097427  .00088545  00000+0  15837-2 0  9997
2 59054  97.4099 328.7264 0007969 218.7640 141.3040 15.49654720 46752
SITRO-AIS 33            
1 59055U 24039E   24365.45743144  .00092725  00000+0  16499-2 0  9999
2 59055  97.4101 328.7711 0007620 217.1245 142.9480 15.49788909 46743
SITRO-AIS 35            
1 59056U 24039F   24365.45016663  .00092712  00000+0  16446-2 0  9997
2 59056  97.4101 328.7745 0007549 219.0400 141.0307 15.49877163 46744
SITRO-AIS 32            
1 59057U 24039G   24365.48514558  .00089084  00000+0  16062-2 0  9999
2 59057  97.4105 328.7369 0007816 219.3289 140.7396 15.49424482 46742
SITRO-AIS 34            
1 59058U 24039H   24365.45693808  .00090675  00000+0  16139-2 0  9996
2 59058  97.4103 328.7737 0007600 217.3062 142.7662 15.49788580 46748
SITRO-AIS 36            
1 59059U 24039J   24365.43481726  .00087076  00000+0  15465-2 0  9991
2 59059  97.4094 328.7972 0007303 217.5067 142.5675 15.49866458 46749
SITRO-AIS 49            
1 59060U 24039K   24365.45707063  .00088283  00000+0  15888-2 0  9990
2 59060  97.4105 328.7722 0007655 218.5488 141.5218 15.49482157 46747
SITRO-AIS 50            
1 59061U 24039L   24365.46488637  .00088597  00000+0  15487-2 0  9998
2 59061  97.4094 328.9076 0007223 214.0897 145.9892 15.50313379 46753
SITRO-AIS 51            
1 59062U 24039M   24365.46090168  .00097235  00000+0  16862-2 0  9994
2 59062  97.4094 328.9097 0007157 214.0141 146.0653 15.50506544 46750
SITRO-AIS 52            
1 59063U 24039N   24365.44181807  .00094873  00000+0  16438-2 0  9998
2 59063  97.4099 328.9412 0006998 215.5311 144.5476 15.50541403 46753
SITRO-AIS 25            
1 59066U 24039R   24365.47426516  .00009854  00000+0  87115-3 0  9999
2 59066  95.3851 230.4923 0163094  26.6142 334.3336 14.86687194 45239
SITRO-AIS 26            
1 59067U 24039S   24365.48462288  .00010549  00000+0  93524-3 0  9991
2 59067  95.3850 230.4824 0163248  26.6732 334.2771 14.86553032 45230
SITRO-AIS 27            
1 59068U 24039T   24365.37859825  .00010766  00000+0  94892-3 0  9997
2 59068  95.3853 230.4790 0162601  26.6760 334.2711 14.86837010 45223
SITRO-AIS 28            
1 59071U 24039U   24365.43736598  .00010736  00000+0  94573-3 0  9992
2 59071  95.3854 230.5358 0162452  26.4073 334.5313 14.86876814 45235
GRBBETA                 
1 60237U 24128C   24364.50663157  .00011364  00000+0  91123-3 0  9990
2 60237  61.9941 283.6196 0033343  18.4773 341.7519 15.00086023 25867
OOV-CUBE (TUBSAT-30)    
1 60240U 24128F   24364.81991798  .00007390  00000+0  62322-3 0  9996
2 60240  61.9983 283.5279 0031662  14.2270 345.9704 14.98575222 25903
ROBUSTA-3A (MEDITERRAN*)
1 60243U 24128J   24364.48770155  .00018011  00000+0  14153-2 0  9994
2 60243  61.9911 284.0138 0031473   9.3677 350.7993 15.00615347 25869
